{"subarea1": {"name": "\u6771\u4eac23\u533a", "list": [{"area_code": "13101", "municipality": "\u5343\u4ee3\u7530\u533a"}, {"area_code": "13102", "municipality": "\u4e2d\u592e\u533a"}, {"area_code": "13103", "municipality": "\u6e2f\u533a"}, {"area_code": "13104", "municipality": "\u65b0\u5bbf\u533a"}, {"area_code": "13105", "municipality": "\u6587\u4eac\u533a"}, {"area_code": "13106", "municipality": "\u53f0\u6771\u533a"}, {"area_code": "13107", "municipality": "\u58a8\u7530\u533a"}, {"area_code": "13108", "municipality": "\u6c5f\u6771\u533a"}, {"area_code": "13109", "municipality": "\u54c1\u5ddd\u533a"}, {"area_code": "13110", "municipality": "\u76ee\u9ed2\u533a"}, {"area_code": "13111", "municipality": "\u5927\u7530\u533a"}, {"area_code": "13112", "municipality": "\u4e16\u7530\u8c37\u533a"}, {"area_code": "13113", "municipality": "\u6e0b\u8c37\u533a"}, {"area_code": "13114", "municipality": "\u4e2d\u91ce\u533a"}, {"area_code": "13115", "municipality": "\u6749\u4e26\u533a"}, {"area_code": "13116", "municipality": "\u8c4a\u5cf6\u533a"}, {"area_code": "13117", "municipality": "\u5317\u533a"}, {"area_code": "13118", "municipality": "\u8352\u5ddd\u533a"}, {"area_code": "13119", "municipality": "\u677f\u6a4b\u533a"}, {"area_code": "13120", "municipality": "\u7df4\u99ac\u533a"}, {"area_code": "13121", "municipality": "\u8db3\u7acb\u533a"}, {"area_code": "13122", "municipality": "\u845b\u98fe\u533a"}, {"area_code": "13123", "municipality": "\u6c5f\u6238\u5ddd\u533a"}]}, "subarea2": {"name": "\u6771\u4eac\u5e02\u90e8\u30fb\u305d\u306e\u4ed6", "list": [{"area_code": "13201", "municipality": "\u516b\u738b\u5b50\u5e02"}, {"area_code": "13202", "municipality": "\u7acb\u5ddd\u5e02"}, {"area_code": "13203", "municipality": "\u6b66\u8535\u91ce\u5e02"}, {"area_code": "13204", "municipality": "\u4e09\u9df9\u5e02"}, {"area_code": "13205", "municipality": "\u9752\u6885\u5e02"}, {"area_code": "13206", "municipality": "\u5e9c\u4e2d\u5e02"}, {"area_code": "13207", "municipality": "\u662d\u5cf6\u5e02"}, {"area_code": "13208", "municipality": "\u8abf\u5e03\u5e02"}, {"area_code": "13209", "municipality": "\u753a\u7530\u5e02"}, {"area_code": "13210", "municipality": "\u5c0f\u91d1\u4e95\u5e02"}, {"area_code": "13211", "municipality": "\u5c0f\u5e73\u5e02"}, {"area_code": "13212", "municipality": "\u65e5\u91ce\u5e02"}, {"area_code": "13213", "municipality": "\u6771\u6751\u5c71\u5e02"}, {"area_code": "13214", "municipality": "\u56fd\u5206\u5bfa\u5e02"}, {"area_code": "13215", "municipality": "\u56fd\u7acb\u5e02"}, {"area_code": "13218", "municipality": "\u798f\u751f\u5e02"}, {"area_code": "13219", "municipality": "\u72db\u6c5f\u5e02"}, {"area_code": "13220", "municipality": "\u6771\u5927\u548c\u5e02"}, {"area_code": "13221", "municipality": "\u6e05\u702c\u5e02"}, {"area_code": "13222", "municipality": "\u6771\u4e45\u7559\u7c73\u5e02"}, {"area_code": "13223", "municipality": "\u6b66\u8535\u6751\u5c71\u5e02"}, {"area_code": "13224", "municipality": "\u591a\u6469\u5e02"}, {"area_code": "13225", "municipality": "\u7a32\u57ce\u5e02"}, {"area_code": "13227", "municipality": "\u7fbd\u6751\u5e02"}, {"area_code": "13228", "municipality": "\u3042\u304d\u308b\u91ce\u5e02"}, {"area_code": "13229", "municipality": "\u897f\u6771\u4eac\u5e02"}, {"area_code": "13303", "municipality": "\u897f\u591a\u6469\u90e1\u745e\u7a42\u753a"}, {"area_code": "13305", "municipality": "\u897f\u591a\u6469\u90e1\u65e5\u306e\u51fa\u753a"}, {"area_code": "13307", "municipality": "\u897f\u591a\u6469\u90e1\u6a9c\u539f\u6751"}, {"area_code": "13308", "municipality": "\u897f\u591a\u6469\u90e1\u5965\u591a\u6469\u753a"}, {"area_code": "13361", "municipality": "\u5927\u5cf6\u652f\u5e81\u5927\u5cf6\u753a"}, {"area_code": "13362", "municipality": "\u5927\u5cf6\u652f\u5e81\u5229\u5cf6\u6751"}, {"area_code": "13363", "municipality": "\u5927\u5cf6\u652f\u5e81\u65b0\u5cf6\u6751"}, {"area_code": "13364", "municipality": "\u5927\u5cf6\u652f\u5e81\u795e\u6d25\u5cf6\u6751"}, {"area_code": "13381", "municipality": "\u4e09\u5b85\u652f\u5e81\u4e09\u5b85\u6751"}, {"area_code": "13382", "municipality": "\u4e09\u5b85\u652f\u5e81\u5fa1\u8535\u5cf6\u6751"}, {"area_code": "13401", "municipality": "\u516b\u4e08\u652f\u5e81\u516b\u4e08\u753a"}, {"area_code": "13402", "municipality": "\u516b\u4e08\u652f\u5e81\u9752\u30f6\u5cf6\u6751"}, {"area_code": "13421", "municipality": "\u5c0f\u7b20\u539f\u652f\u5e81\u5c0f\u7b20\u539f\u6751"}]}}